{"type": "FeatureCollection", "features": [ {"type": "Feature", "properties": {"norad_id": 34001, "name": "COSMOS 2251 DEB", "group": "cosmos-2251-debris", "lat": -55.550021289435655, "lon": -95.1884847415149, "alt_km": 770.0739086818994, "timestamp": "2025-12-08T10:52:03.341667+00:00", "meta": {"OBJECT_NAME": "COSMOS 2251 DEB", "OBJECT_ID": "1993-036GL", "EPOCH": "2025-12-07T22:02:17.099808", "MEAN_MOTION": 14.37088055, "ECCENTRICITY": 0.00197414, "INCLINATION": 74.0384, "RA_OF_ASC_NODE": 290.4527, "ARG_OF_PERICENTER": 12.5487, "MEAN_ANOMALY": 44.2079, "EPHEMERIS_TYPE": 0, "CLASSIFICATION_TYPE": "U", "NORAD_CAT_ID": 34001, "ELEMENT_SET_NO": 999, "REV_AT_EPOCH": 88077, "BSTAR": 0.00034575326, "MEAN_MOTION_DOT": 1.003e-05, "MEAN_MOTION_DDOT": 0}, "tle": {"line1": "1 34001U 93036GL  25341.91825347  .00001003  00000+0  34575-3 0  9993", "line2": "2 34001  74.0384 290.4527 0019741  12.5487  44.2079 14.37088055880771"}}, "geometry": {"type": "Point", "coordinates": [-95.1884847415149, -55.550021289435655]}}, {"type": "Feature", "properties": {"norad_id": 34003, "name": "COSMOS 2251 DEB", "group": "cosmos-2251-debris", "lat": -69.86244998042112, "lon": -118.75512721334253, "alt_km": 1061.2785171895684, "timestamp": "2025-12-08T10:52:03.341677+00:00", "meta": {"OBJECT_NAME": "COSMOS 2251 DEB", "OBJECT_ID": "1993-036GN", "EPOCH": "2025-12-07T16:09:30.954816", "MEAN_MOTION": 13.84107208, "ECCENTRICITY": 0.02739443, "INCLINATION": 74.0788, "RA_OF_ASC_NODE": 293.6708, "ARG_OF_PERICENTER": 46.8714, "MEAN_ANOMALY": 315.4969, "EPHEMERIS_TYPE": 0, "CLASSIFICATION_TYPE": "U", "NORAD_CAT_ID": 34003, "ELEMENT_SET_NO": 999, "REV_AT_EPOCH": 84355, "BSTAR": 0.0033803576, "MEAN_MOTION_DOT": 5.014e-05, "MEAN_MOTION_DDOT": 0}, "tle": {"line1": "1 34003U 93036GN  25341.67327494  .00005014  00000+0  33804-2 0  9997", "line2": "2 34003  74.0788 293.6708 0273944  46.8714 315.4969 13.84107208843556"}}, "geometry": {"type": "Point", "coordinates": [-118.75512721334253, -69.86244998042112]}}, {"type": "Feature", "properties": {"norad_id": 34004, "name": "COSMOS 2251 DEB", "group": "cosmos-2251-debris", "lat": 3.879713287896734, "lon": -37.73884616829652, "alt_km": 710.7917479257067, "timestamp": "2025-12-08T10:52:03.341687+00:00", "meta": {"OBJECT_NAME": "COSMOS 2251 DEB", "OBJECT_ID": "1993-036GP", "EPOCH": "2025-12-07T00:03:02.971008", "MEAN_MOTION": 14.48920169, "ECCENTRICITY": 0.00332638, "INCLINATION": 74.0359, "RA_OF_ASC_NODE": 323.8672, "ARG_OF_PERICENTER": 336.8395, "MEAN_ANOMALY": 23.1263, "EPHEMERIS_TYPE": 0, "CLASSIFICATION_TYPE": "U", "NORAD_CAT_ID": 34004, "ELEMENT_SET_NO": 999, "REV_AT_EPOCH": 87947, "BSTAR": 0.0022264278, "MEAN_MOTION_DOT": 8.471e-05, "MEAN_MOTION_DDOT": 0}, "tle": {"line1": "1 34004U 93036GP  25341.00211772  .00008471  00000+0  22264-2 0  9994", "line2": "2 34004  74.0359 323.8672 0033263 336.8395  23.1263 14.48920169879472"}}, "geometry": {"type": "Point", "coordinates": [-37.73884616829652, 3.879713287896734]}}, {"type": "Feature", "properties": {"norad_id": 34005, "name": "COSMOS 2251 DEB", "group": "cosmos-2251-debris", "lat": 48.81963526788841, "lon": -119.34472740911151, "alt_km": 747.9537914141583, "timestamp": "2025-12-08T10:52:03.341697+00:00", "meta": {"OBJECT_NAME": "COSMOS 2251 DEB", "OBJECT_ID": "1993-036GQ", "EPOCH": "2025-12-07T23:03:15.880608", "MEAN_MOTION": 14.40298849, "ECCENTRICITY": 0.00206676, "INCLINATION": 74.045, "RA_OF_ASC_NODE": 222.4767, "ARG_OF_PERICENTER": 341.4847, "MEAN_ANOMALY": 38.7318, "EPHEMERIS_TYPE": 0, "CLASSIFICATION_TYPE": "U", "NORAD_CAT_ID": 34005, "ELEMENT_SET_NO": 999, "REV_AT_EPOCH": 88310, "BSTAR": 0.00018024508, "MEAN_MOTION_DOT": 5.46e-06, "MEAN_MOTION_DDOT": 0}, "tle": {"line1": "1 34005U 93036GQ  25341.96060047  .00000546  00000+0  18025-3 0  9993", "line2": "2 34005  74.0450 222.4767 0020667 341.4847  38.7318 14.40298849883105"}}, "geometry": {"type": "Point", "coordinates": [-119.34472740911151, 48.81963526788841]}}, {"type": "Feature", "properties": {"norad_id": 34006, "name": "COSMOS 2251 DEB", "group": "cosmos-2251-debris", "lat": -20.24718008627936, "lon": -22.031326148852298, "alt_km": 590.4538902289651, "timestamp": "2025-12-08T10:52:03.341707+00:00", "meta": {"OBJECT_NAME": "COSMOS 2251 DEB", "OBJECT_ID": "1993-036GR", "EPOCH": "2025-12-07T21:40:58.181952", "MEAN_MOTION": 14.94223976, "ECCENTRICITY": 0.00116871, "INCLINATION": 74.0534, "RA_OF_ASC_NODE": 153.0193, "ARG_OF_PERICENTER": 105.692, "MEAN_ANOMALY": 21.2174, "EPHEMERIS_TYPE": 0, "CLASSIFICATION_TYPE": "U", "NORAD_CAT_ID": 34006, "ELEMENT_SET_NO": 999, "REV_AT_EPOCH": 88596, "BSTAR": 0.0038681056, "MEAN_MOTION_DOT": 0.00041749, "MEAN_MOTION_DDOT": 0}, "tle": {"line1": "1 34006U 93036GR  25341.90345118  .00041749  00000+0  38681-2 0  9992", "line2": "2 34006  74.0534 153.0193 0011687 105.6920  21.2174 14.94223976885966"}}, "geometry": {"type": "Point", "coordinates": [-22.031326148852298, -20.24718008627936]}}, {"type": "Feature", "properties": {"norad_id": 34007, "name": "COSMOS 2251 DEB", "group": "cosmos-2251-debris", "lat": -54.194644433742766, "lon": -161.4429944315276, "alt_km": 693.0556817270563, "timestamp": "2025-12-08T10:52:03.341718+00:00", "meta": {"OBJECT_NAME": "COSMOS 2251 DEB", "OBJECT_ID": "1993-036GS", "EPOCH": "2025-12-07T09:12:10.303776", "MEAN_MOTION": 14.6472978, "ECCENTRICITY": 0.00445307, "INCLINATION": 74.0192, "RA_OF_ASC_NODE": 357.207, "ARG_OF_PERICENTER": 133.8677, "MEAN_ANOMALY": 226.6185, "EPHEMERIS_TYPE": 0, "CLASSIFICATION_TYPE": "U", "NORAD_CAT_ID": 34007, "ELEMENT_SET_NO": 999, "REV_AT_EPOCH": 89001, "BSTAR": 0.0010571163, "MEAN_MOTION_DOT": 5.686e-05, "MEAN_MOTION_DDOT": 0}, "tle": {"line1": "1 34007U 93036GS  25341.38345259  .00005686  00000+0  10571-2 0  9999", "line2": "2 34007  74.0192 357.2070 0044530 133.8677 226.6185 14.64729780890010"}}, "geometry": {"type": "Point", "coordinates": [-161.4429944315276, -54.194644433742766]}}, {"type": "Feature", "properties": {"norad_id": 34008, "name": "COSMOS 2251 DEB", "group": "cosmos-2251-debris", "lat": 63.66793494784338, "lon": 13.694976990983887, "alt_km": 775.9882235190598, "timestamp": "2025-12-08T10:52:03.341728+00:00", "meta": {"OBJECT_NAME": "COSMOS 2251 DEB", "OBJECT_ID": "1993-036GT", "EPOCH": "2025-12-07T18:37:23.947968", "MEAN_MOTION": 14.33141068, "ECCENTRICITY": 0.00241451, "INCLINATION": 74.0341, "RA_OF_ASC_NODE": 339.5905, "ARG_OF_PERICENTER": 335.7607, "MEAN_ANOMALY": 202.1369, "EPHEMERIS_TYPE": 0, "CLASSIFICATION_TYPE": "U", "NORAD_CAT_ID": 34008, "ELEMENT_SET_NO": 999, "REV_AT_EPOCH": 87893, "BSTAR": 0.00022346373, "MEAN_MOTION_DOT": 5.89e-06, "MEAN_MOTION_DDOT": 0}, "tle": {"line1": "1 34008U 93036GT  25341.77597162  .00000589  00000+0  22346-3 0  9996", "line2": "2 34008  74.0341 339.5905 0024145 335.7607 202.1369 14.33141068878936"}}, "geometry": {"type": "Point", "coordinates": [13.694976990983887, 63.66793494784338]}}, {"type": "Feature", "properties": {"norad_id": 34009, "name": "COSMOS 2251 DEB", "group": "cosmos-2251-debris", "lat": 69.14628668304624, "lon": 116.06213304962306, "alt_km": 761.2062161584599, "timestamp": "2025-12-08T10:52:03.341738+00:00", "meta": {"OBJECT_NAME": "COSMOS 2251 DEB", "OBJECT_ID": "1993-036GU", "EPOCH": "2025-12-07T07:39:30.367872", "MEAN_MOTION": 14.33215748, "ECCENTRICITY": 0.0026345, "INCLINATION": 74.0371, "RA_OF_ASC_NODE": 346.8432, "ARG_OF_PERICENTER": 58.2195, "MEAN_ANOMALY": 317.973, "EPHEMERIS_TYPE": 0, "CLASSIFICATION_TYPE": "U", "NORAD_CAT_ID": 34009, "ELEMENT_SET_NO": 999, "REV_AT_EPOCH": 87868, "BSTAR": 0.0002431103, "MEAN_MOTION_DOT": 6.45e-06, "MEAN_MOTION_DDOT": 0}, "tle": {"line1": "1 34009U 93036GU  25341.31910148  .00000645  00000+0  24311-3 0  9997", "line2": "2 34009  74.0371 346.8432 0026345  58.2195 317.9730 14.33215748878685"}}, "geometry": {"type": "Point", "coordinates": [116.06213304962306, 69.14628668304624]}}, {"type": "Feature", "properties": {"norad_id": 34010, "name": "COSMOS 2251 DEB", "group": "cosmos-2251-debris", "lat": 66.6630543829463, "lon": 70.59675998258261, "alt_km": 504.2951211298405, "timestamp": "2025-12-08T10:52:03.341748+00:00", "meta": {"OBJECT_NAME": "COSMOS 2251 DEB", "OBJECT_ID": "1993-036GV", "EPOCH": "2025-12-07T23:19:17.608512", "MEAN_MOTION": 15.17414136, "ECCENTRICITY": 0.00046375, "INCLINATION": 73.9991, "RA_OF_ASC_NODE": 293.2959, "ARG_OF_PERICENTER": 62.238, "MEAN_ANOMALY": 297.9285, "EPHEMERIS_TYPE": 0, "CLASSIFICATION_TYPE": "U", "NORAD_CAT_ID": 34010, "ELEMENT_SET_NO": 999, "REV_AT_EPOCH": 89213, "BSTAR": 0.0051282461, "MEAN_MOTION_DOT": 0.00104055, "MEAN_MOTION_DDOT": 0}, "tle": {"line1": "1 34010U 93036GV  25341.97173158  .00104055  00000+0  51282-2 0  9999", "line2": "2 34010  73.9991 293.2959 0004637  62.2380 297.9285 15.17414136892136"}}, "geometry": {"type": "Point", "coordinates": [70.59675998258261, 66.6630543829463]}}, {"type": "Feature", "properties": {"norad_id": 34011, "name": "COSMOS 2251 DEB", "group": "cosmos-2251-debris", "lat": -22.509724761892464, "lon": -28.717203421817334, "alt_km": 756.2211264718171, "timestamp": "2025-12-08T10:52:03.341759+00:00", "meta": {"OBJECT_NAME": "COSMOS 2251 DEB", "OBJECT_ID": "1993-036GW", "EPOCH": "2025-12-07T00:00:14.422752", "MEAN_MOTION": 14.41727991, "ECCENTRICITY": 0.00352756, "INCLINATION": 74.0148, "RA_OF_ASC_NODE": 340.7993, "ARG_OF_PERICENTER": 66.3201, "MEAN_ANOMALY": 294.165, "EPHEMERIS_TYPE": 0, "CLASSIFICATION_TYPE": "U", "NORAD_CAT_ID": 34011, "ELEMENT_SET_NO": 999, "REV_AT_EPOCH": 87833, "BSTAR": 0.0012394151, "MEAN_MOTION_DOT": 4.05e-05, "MEAN_MOTION_DDOT": 0}, "tle": {"line1": "1 34011U 93036GW  25341.00016693  .00004050  00000+0  12394-2 0  9999", "line2": "2 34011  74.0148 340.7993 0035275  66.3201 294.1650 14.41727991878331"}}, "geometry": {"type": "Point", "coordinates": [-28.717203421817334, -22.509724761892464]}}]}